H1 CPF 01  gfz 2021 07 31 00  7121 terrasarx 
H2 0702601  6201 31698    2021 07 31 00 59 42 2021 08 05 00 00 42   120 1 1  0 0 0
H9
10 0 59430  55422.000000  0   -5160968.996  -3818928.049  -2506738.581
10 0 59430  55542.000000  0   -4958556.735  -3446059.981  -3324250.450
10 0 59430  55662.000000  0   -4662752.375  -3017519.192  -4083441.407
10 0 59430  55782.000000  0   -4277901.132  -2542423.620  -4771067.855
10 0 59430  55902.000000  0   -3810051.955  -2030594.421  -5375168.549
10 0 59430  56022.000000  0   -3266854.010  -1492351.706  -5885265.213
10 0 59430  56142.000000  0   -2657424.447   -938305.943  -6292534.377
10 0 59430  56262.000000  0   -1992189.997   -379149.836  -6589948.941
10 0 59430  56382.000000  0   -1282705.301    174545.110  -6772387.493
10 0 59430  56502.000000  0    -541453.745    712523.316  -6836711.749
10 0 59430  56622.000000  0     218367.709   1225030.189  -6781814.839
10 0 59430  56742.000000  0     983076.847   1702983.823  -6608638.365
10 0 59430  56862.000000  0    1738747.105   2138132.625  -6320160.435
10 0 59430  56982.000000  0    2471456.258   2523196.276  -5921349.664
10 0 59430  57102.000000  0    3167539.463   2851987.461  -5419087.934
10 0 59430  57222.000000  0    3813841.266   3119512.163  -4822062.292
10 0 59430  57342.000000  0    4397966.003   3322048.751  -4140627.057
10 0 59430  57462.000000  0    4908520.449   3457202.402  -3386634.064
10 0 59430  57582.000000  0    5335342.137   3523933.267  -2573233.609
10 0 59430  57702.000000  0    5669708.983   3522558.965  -1714649.988
10 0 59430  57822.000000  0    5904525.620   3454728.946   -825932.834
10 0 59430  57942.000000  0    6034479.690   3323371.012     77309.623
10 0 59430  58062.000000  0    6056165.300   3132611.299    979190.498
10 0 59430  58182.000000  0    5968168.700   2887669.090   1863831.797
10 0 59430  58302.000000  0    5771113.343   2594730.264   2715652.417
10 0 59430  58422.000000  0    5467664.650   2260801.387   3519651.615
10 0 59430  58542.000000  0    5062491.927   1893547.870   4261680.295
10 0 59430  58662.000000  0    4562189.567   1501121.532   4928693.462
10 0 59430  58782.000000  0    3975163.181   1091981.533   5508979.065
10 0 59430  58902.000000  0    3311479.692    674713.218   5992363.894
10 0 59430  59022.000000  0    2582684.584    257848.724   6370385.924
10 0 59430  59142.000000  0    1801595.981   -150305.242   6636435.127
10 0 59430  59262.000000  0     982076.316   -541831.283   6785864.261
10 0 59430  59382.000000  0     138783.397   -909354.140   6816065.940
10 0 59430  59502.000000  0    -713092.443  -1246178.705   6726514.190
10 0 59430  59622.000000  0   -1558101.288  -1546411.977   6518772.270
10 0 59430  59742.000000  0   -2380812.226  -1805065.931   6196465.769
10 0 59430  59862.000000  0   -3166092.972  -2018139.746   5765224.428
10 0 59430  59982.000000  0   -3899391.088  -2182682.903   5232592.433
10 0 59430  60102.000000  0   -4567009.128  -2296836.578   4607901.586
10 0 59430  60222.000000  0   -5156366.749  -2359851.539   3902112.058
10 0 59430  60342.000000  0   -5656244.736  -2372081.687   3127622.991
10 0 59430  60462.000000  0   -6057006.619  -2334954.331   2298056.662
10 0 59430  60582.000000  0   -6350793.959  -2250918.757   1428018.161
10 0 59430  60702.000000  0   -6531688.723  -2123372.263    532831.831
10 0 59430  60822.000000  0   -6595835.716  -1956565.107   -371736.183
10 0 59430  60942.000000  0   -6541525.494  -1755487.418  -1269764.697
10 0 59430  61062.000000  0   -6369232.323  -1525741.140  -2145467.111
10 0 59430  61182.000000  0   -6081608.019  -1273400.680  -2983476.148
10 0 59430  61302.000000  0   -5683432.615  -1004865.901  -3769118.156
10 0 59430  61422.000000  0   -5181523.897   -726710.775  -4488671.592
10 0 59430  61542.000000  0   -4584608.418   -445531.400  -5129604.596
10 0 59430  61662.000000  0   -3903157.396   -167797.773  -5680787.461
10 0 59430  61782.000000  0   -3149192.065    100287.652  -6132676.550
10 0 59430  61902.000000  0   -2336064.502    352921.688  -6477467.384
10 0 59430  62022.000000  0   -1478218.440    584819.266  -6709217.913
10 0 59430  62142.000000  0    -590933.191    791318.153  -6823940.557
10 0 59430  62262.000000  0     309943.806    968469.022  -6819662.124
10 0 59430  62382.000000  0    1208271.908   1113107.722  -6696454.403
10 0 59430  62502.000000  0    2087900.272   1222910.447  -6456435.687
10 0 59430  62622.000000  0    2932952.779   1296431.040  -6103738.151
10 0 59430  62742.000000  0    3728110.504   1333118.940  -5644443.142
10 0 59430  62862.000000  0    4458886.585   1333317.700  -5086486.357
10 0 59430  62982.000000  0    5111892.604   1298244.601  -4439532.985
10 0 59430  63102.000000  0    5675090.107   1229951.293  -3714820.543
10 0 59430  63222.000000  0    6138021.027   1131265.630  -2924972.575
10 0 59430  63342.000000  0    6492013.199   1005715.785  -2083785.579
10 0 59430  63462.000000  0    6730355.971    857438.454  -1205990.247
10 0 59430  63582.000000  0    6848439.037    691072.169   -306991.251
10 0 59430  63702.000000  0    6843850.189    511638.996    597408.196
10 0 59430  63822.000000  0    6716430.711    324417.839   1491290.660
10 0 59430  63942.000000  0    6468286.375    134810.770   2358913.733
10 0 59430  64062.000000  0    6103750.849    -51792.343   3184996.808
10 0 59430  64182.000000  0    5629304.512   -230148.746   3954997.555
10 0 59430  64302.000000  0    5053450.614   -395291.782   4655371.953
10 0 59430  64422.000000  0    4386554.443   -542652.764   5273815.448
10 0 59430  64542.000000  0    3640644.965   -668172.309   5799478.239
10 0 59430  64662.000000  0    2829188.700   -768397.339   6223151.103
10 0 59430  64782.000000  0    1966839.537   -840563.350   6537421.254
10 0 59430  64902.000000  0    1069169.831   -882660.001   6736796.882
10 0 59430  65022.000000  0     152385.302   -893478.918   6817797.872
10 0 59430  65142.000000  0    -766968.344   -872642.460   6779011.372
10 0 59430  65262.000000  0   -1672302.852   -820613.734   6621114.047
10 0 59430  65382.000000  0   -2547285.116   -738686.748   6346860.619
10 0 59430  65502.000000  0   -3376130.488   -628957.375   5961039.581
10 0 59430  65622.000000  0   -4143889.447   -494275.432   5470396.158
10 0 59430  65742.000000  0   -4836722.464   -338179.250   4883521.048
10 0 59430  65862.000000  0   -5442156.715   -164813.257   4210705.128
10 0 59430  65982.000000  0   -5949319.229     21169.672   3463762.636
10 0 59430  66102.000000  0   -6349141.178    214719.301   2655826.062
10 0 59430  66222.000000  0   -6634530.653    410510.542   1801115.233
10 0 59430  66342.000000  0   -6800507.824    603073.909    914683.114
10 0 59430  66462.000000  0   -6844298.775    786930.496     12143.811
10 0 59430  66582.000000  0   -6765384.611    956728.704   -890611.524
10 0 59430  66702.000000  0   -6565503.858   1107378.687  -1777703.668
10 0 59430  66822.000000  0   -6248610.531   1234180.848  -2633551.423
10 0 59430  66942.000000  0   -5820789.842   1332946.814  -3443152.727
10 0 59430  67062.000000  0   -5290128.651   1400107.488  -4192352.033
10 0 59430  67182.000000  0   -4666549.503   1432806.529  -4868086.403
10 0 59430  67302.000000  0   -3961612.682   1428977.543  -5458608.238
10 0 59430  67422.000000  0   -3188291.797   1387403.318  -5953680.584
10 0 59430  67542.000000  0   -2360728.531   1307755.765  -6344744.260
10 0 59430  67662.000000  0   -1493970.526   1190616.852  -6625054.799
10 0 59430  67782.000000  0    -603697.458   1037480.368  -6789786.803
10 0 59430  67902.000000  0     294057.839    850733.922  -6836106.917
10 0 59430  68022.000000  0    1183189.991    633622.718  -6763217.933
10 0 59430  68142.000000  0    2047804.143    390194.199  -6572373.182
10 0 59430  68262.000000  0    2872494.151    125224.748  -6266856.614
10 0 59430  68382.000000  0    3642612.889   -155869.969  -5851932.478
10 0 59430  68502.000000  0    4344529.755   -447141.105  -5334762.672
10 0 59430  68622.000000  0    4965872.944   -742226.416  -4724295.282
10 0 59430  68742.000000  0    5495754.185  -1034482.983  -4031121.313
10 0 59430  68862.000000  0    5924968.302  -1317129.723  -3267300.436
10 0 59430  68982.000000  0    6246164.191  -1583397.300  -2446158.564
10 0 59430  69102.000000  0    6453983.032  -1826682.267  -1582059.390
10 0 59430  69222.000000  0    6545159.214  -2040701.415   -690153.151
10 0 59430  69342.000000  0    6518581.032  -2219642.294    213892.120
10 0 59430  69462.000000  0    6375309.135  -2358306.682   1114172.291
10 0 59430  69582.000000  0    6118550.862  -2452242.137   1994835.662
10 0 59430  69702.000000  0    5753590.648  -2497859.247   2840371.252
10 0 59430  69822.000000  0    5287678.937  -2492530.541   3635890.569
10 0 59430  69942.000000  0    4729880.985  -2434668.497   4367395.510
10 0 59430  70062.000000  0    4090893.505  -2323781.187   5022026.652
10 0 59430  70182.000000  0    3382832.131  -2160505.521   5588291.125
10 0 59430  70302.000000  0    2618991.928  -1946615.878   6056262.189
10 0 59430  70422.000000  0    1813591.076  -1685008.365   6417747.757
10 0 59430  70542.000000  0     981501.548  -1379662.373   6666427.968
10 0 59430  70662.000000  0     137971.435  -1035579.337   6797959.845
10 0 59430  70782.000000  0    -701655.178   -658699.608   6810047.639
10 0 59430  70902.000000  0   -1522216.110   -255799.762   6702479.624
10 0 59430  71022.000000  0   -2309003.521    165628.897   6477131.578
10 0 59430  71142.000000  0   -3048026.645    597518.892   6137936.662
10 0 59430  71262.000000  0   -3726261.544   1031379.740   5690821.794
10 0 59430  71382.000000  0   -4331884.484   1458463.303   5143610.636
10 0 59430  71502.000000  0   -4854484.284   1869938.948   4505892.681
10 0 59430  71622.000000  0   -5285248.850   2257075.674   3788859.827
10 0 59430  71742.000000  0   -5617121.552   2611426.452   3005112.598
10 0 59430  71862.000000  0   -5844924.400   2925011.087   2168439.758
99
